{"type":"Feature","properties":{"shapeName":"Punjab","shapeISO":"IN-PB","shapeID":"1811400B91946361694107","shapeGroup":"IND","shapeType":"ADM1"},"geometry":{"type":"Polygon","coordinates":[[[74.5271597397686,29.94278637118108],[74.53174305484096,29.949197628002864],[74.54198927400593,29.940107213087316],[74.5607551683261,29.929264974891623],[74.55897076472718,29.927091809104354],[74.57412698569061,29.926973766813322],[74.58243662844417,29.924348286374737],[74.58783778142929,29.91818464736289],[74.59668777519929,29.91226880408077],[74.62923382418118,29.905032656350226],[74.64684139034985,29.90434544404143],[74.65417740396414,29.905572585584704],[74.64918740718963,29.907502567584554],[74.64669277935742,29.911422676595475],[74.65160155675215,29.926481048257042],[74.66971893660745,29.939212188653745],[74.68203216217321,29.943339576140858],[74.68631907362597,29.949308903322624],[74.68898243561128,29.95913636628386],[74.69361350242916,29.96685171523368],[74.70217642427878,29.97194055392925],[74.70664205376072,29.976898752338027],[74.70665603334317,29.970575323138583],[74.72836066550401,29.96152132439288],[74.7313937246529,29.96147296608679],[74.74026957553004,29.96839686381407],[74.75331626474546,29.967821709387966],[74.75349890122588,29.969982946549077],[74.75841855452376,29.970356896175225],[74.75834265317046,29.972064471050835],[74.7629955670161,29.973237143525335],[74.77079282330799,29.972037717902175],[74.77595622367845,29.97320993857349],[74.77943554250429,29.971956779836887],[74.80598243091474,29.991955937704134],[74.81243347910839,29.99233814346527],[74.81876660186143,29.990586456963936],[74.82429557612836,29.98573816585867],[74.82631236760304,29.97719759454297],[74.82101080544359,29.970934744811746],[74.82867668312521,29.97330581731946],[74.83845364035203,29.971121411791742],[74.84376074511681,29.9642621845395],[74.85072879351941,29.961787447195338],[74.85537132643363,29.956366523898055],[74.86468944667119,29.960102446297],[74.86989551252607,29.96001712926261],[74.87572823952988,29.957513894740902],[74.8879696591617,29.967134478479906],[74.90323906066442,29.952179152682728],[74.90060790957025,29.945252586403598],[74.89542426925816,29.940576199150463],[74.8972779114059,29.939415666421443],[74.90648642190747,29.940365634586332],[74.91287331062688,29.94332299060761],[74.91911593081002,29.947150678067196],[74.92283058668072,29.95202586658697],[74.92673643638322,29.950260273773832],[74.92677614012219,29.945807339871966],[74.93537486432744,29.931316629126382],[74.93636604115741,29.92625981821217],[74.94167830764181,29.917551731819522],[74.94367245079157,29.917180621757705],[74.94819979094024,29.906808599239653],[74.95371454846942,29.901397164011534],[74.97018951782954,29.89770584023445],[74.9787638985889,29.894158584106908],[74.97709625531567,29.888404301347823],[74.9909139056574,29.86768915953055],[74.99889743840326,29.866103231153616],[75.00490787552647,29.868936811333665],[75.02249751761023,29.86626689819549],[75.03288331790233,29.879817880667183],[75.04694322052,29.885090264338416],[75.05183931639786,29.88408313084728],[75.05609463949202,29.878103081656064],[75.06524881539362,29.878800969981878],[75.06994976395411,29.877061977967404],[75.07444607988617,29.882268307588248],[75.07602990675014,29.890870652014907],[75.07528183829051,29.89635757399634],[75.08044512187999,29.900821609710768],[75.08206969812186,29.90728136778742],[75.08689266664402,29.915384114198083],[75.08876913049157,29.91720108991541],[75.0987497995737,29.912795739749416],[75.0990051977955,29.911091516984634],[75.10729092020968,29.904066530589105],[75.10926322351823,29.90410847449635],[75.11035372078099,29.901924051285448],[75.11039995078045,29.892722592221645],[75.11470387901966,29.878666641804134],[75.10682661876855,29.86801182740687],[75.09972170754082,29.86391734878248],[75.09336996720354,29.857988918866123],[75.08972373421139,29.858632695844538],[75.09006401783763,29.85401834318135],[75.10312664945442,29.841762446536936],[75.11135771297683,29.841926861783882],[75.1188564761678,29.831962293966708],[75.1015097052992,29.821563435389436],[75.10030254742378,29.8194127659248],[75.10071997297673,29.806793211967015],[75.1044569438974,29.80481978250061],[75.11822467485881,29.802713678932214],[75.1266375735644,29.806892534837345],[75.13507687555278,29.80730341851166],[75.13681958115284,29.805968554660723],[75.14051289934062,29.7855949503075],[75.14644706769955,29.781835603014972],[75.15095638764366,29.775538234086184],[75.15545610459735,29.77689781046594],[75.1629504696367,29.780909114793353],[75.16688163206729,29.785186159698643],[75.1666078354502,29.78822575047883],[75.15905994788787,29.801341510095707],[75.16061503854421,29.80638514322737],[75.16018474372648,29.812860207493472],[75.16403683644577,29.82410608638584],[75.17003964866885,29.828194410070044],[75.17589606783993,29.828105215205213],[75.19145826622638,29.841250612788762],[75.19649268469169,29.837780154203916],[75.19922436714758,29.83780895463015],[75.2106479695279,29.832417297654658],[75.21398815009601,29.823998714446468],[75.20965165163955,29.817353970911114],[75.2085320552498,29.79316526613953],[75.21471071089312,29.79179406011383],[75.21625805358009,29.787724130078733],[75.22627589135546,29.789152729188224],[75.2247187776931,29.77990259599212],[75.2365835939134,29.757017010211836],[75.24157831852128,29.7546497784537],[75.23814772880802,29.739965125376635],[75.226320722678,29.72888518935477],[75.21746001559993,29.737148218996968],[75.21030710199672,29.738815180172434],[75.2006110793837,29.72648815359312],[75.196865597824,29.71571256054667],[75.19776582382475,29.703255911494562],[75.20022662020504,29.701069330255425],[75.20757231586148,29.701554945926958],[75.20677087489763,29.6875202076869],[75.19878088865478,29.680009760710714],[75.19598266529081,29.68115362009182],[75.19318038872832,29.680254021824467],[75.190933306944,29.6819447776552],[75.18811475829845,29.681347242854695],[75.18727393159925,29.67593685444258],[75.18391417674108,29.673344219189314],[75.17956638915645,29.674511077777627],[75.17710975287423,29.670634736936503],[75.17188027692306,29.671348093152464],[75.1675349740785,29.670186873143095],[75.16809955265816,29.666561787353388],[75.17462715258536,29.655607820146617],[75.18000677385142,29.652869340687527],[75.18759121386265,29.65180496768769],[75.18218244675718,29.635968216197593],[75.18304257376026,29.62840571068794],[75.19682403367413,29.61933079635149],[75.2067338454433,29.621906370954715],[75.21967918493173,29.61542534257686],[75.22146680360103,29.611112312204465],[75.22836328053002,29.605438505455613],[75.23374986014628,29.602377575509156],[75.23535336370821,29.603075479481543],[75.22741076539322,29.587217288784636],[75.22169604557673,29.580290314734466],[75.22678774960772,29.579019823942748],[75.23192850344982,29.574799223482934],[75.23440247362377,29.570009197006637],[75.23379298287317,29.564328811633175],[75.2383838024714,29.55886188839236],[75.23908051065294,29.550734598894433],[75.23534206290194,29.54207982547574],[75.24446127008449,29.546698938507024],[75.27324038753437,29.549994817538625],[75.28035122315138,29.55397635139781],[75.28113472116578,29.561470206674432],[75.29828074461952,29.558601562646263],[75.30944155115166,29.56084655351579],[75.3112683687067,29.580155605045576],[75.31990966856482,29.587425651811923],[75.316549632534,29.590393638301975],[75.31399186122215,29.589266867525172],[75.30560321253766,29.595682705421194],[75.30342714616984,29.602594584027223],[75.29774194948516,29.603695668670092],[75.28966048689857,29.607823972557473],[75.29488908250079,29.61572161925793],[75.29570653413795,29.625046794939905],[75.30727171190537,29.624784557280762],[75.31113511171912,29.62950849988964],[75.3165595472398,29.630630301486164],[75.3234625746838,29.642480578079283],[75.32099101648642,29.64726772494025],[75.32222267411457,29.651617870748005],[75.33182954522384,29.663191667507714],[75.33373398979586,29.673487738842862],[75.34102983254732,29.675260551322065],[75.34862550688945,29.66659066511654],[75.35807521414651,29.660759765444563],[75.3601384763692,29.66261129896417],[75.35981078802152,29.668150289304652],[75.35422782949762,29.674910475922463],[75.35365810267307,29.679601089064395],[75.34889037964257,29.686294037438042],[75.34569857021668,29.696015646936416],[75.35141770345615,29.696076254828245],[75.35857326259791,29.69976502158885],[75.35788479017091,29.704405862365505],[75.35904580069187,29.705516857195427],[75.36461774587039,29.703930383758834],[75.37078130083376,29.704477957795305],[75.36984815786607,29.710868689204503],[75.3729661176908,29.71328053955334],[75.37632904989009,29.714095730854257],[75.3786093396955,29.712888976581635],[75.38019414482481,29.714221051229863],[75.38398935352537,29.71221274035583],[75.39223517097797,29.713297917766347],[75.38921947716184,29.716146114258475],[75.39110471036321,29.716995789343926],[75.39072013260692,29.71904331665119],[75.39344029686426,29.721991078616856],[75.3881262750718,29.727994938834808],[75.38815526011274,29.729893976564536],[75.39132544169986,29.732806103821584],[75.39544894241595,29.73357639477622],[75.39641973018394,29.739472616251494],[75.4013033655305,29.74022069253119],[75.40475206078831,29.73900994133916],[75.40628196448071,29.761266950934427],[75.41392066812494,29.770009559264782],[75.41628422546903,29.769167574189805],[75.41935448924369,29.770225117597008],[75.42139286004814,29.77509784789371],[75.42168404625257,29.773027654173525],[75.42744545780259,29.770865874597682],[75.43833890953653,29.7800463399016],[75.44754090635395,29.783816915895088],[75.45117193805487,29.78145467888893],[75.45394857041097,29.78201951026388],[75.4558244404721,29.78429807994805],[75.45602359068236,29.790491352121165],[75.45815232212296,29.794768235502836],[75.45284300929922,29.8018618196477],[75.45515825794224,29.805719288970856],[75.4595124127856,29.807529507443306],[75.46224857513981,29.80732287174398],[75.47956799320633,29.79279782903848],[75.48551533535893,29.791540182116908],[75.49214559385851,29.78578973595208],[75.4972544539148,29.78440515224602],[75.50273558121472,29.777896249821687],[75.51857810966531,29.775829214878136],[75.52323529769507,29.769166191662748],[75.5219251515656,29.7598427055404],[75.52301045117608,29.75841712507482],[75.52488272348451,29.76186757311674],[75.52836746993131,29.762836636898594],[75.53267144308627,29.770630311454102],[75.53793061734075,29.77334891857737],[75.54067095236945,29.77359616585889],[75.54486297298214,29.77080726204108],[75.5620901062212,29.77024116893196],[75.5697172395646,29.756809001392888],[75.572147637854,29.74329807075464],[75.58004272696854,29.73944592627115],[75.58985475083085,29.74752743742153],[75.6009084359603,29.74958103647692],[75.60524264101785,29.751959402488794],[75.60765313713209,29.7485518844866],[75.61669416573213,29.74425909875372],[75.6204447614007,29.746899115513823],[75.62575436527861,29.747656485466354],[75.6297737826943,29.749930597358087],[75.63445902511037,29.755284755589066],[75.63514875428045,29.77230300214712],[75.63775676836613,29.773897181185024],[75.64023157576992,29.77250986610947],[75.64243255152228,29.775101167165662],[75.6500859111804,29.775701721219722],[75.65594632515958,29.773773429336448],[75.66095098333786,29.77684373153913],[75.66405079629548,29.77521615566022],[75.66805112810464,29.7774078458686],[75.67714501447428,29.776588680367972],[75.68168213637811,29.77228393743656],[75.68263927873691,29.766946373627533],[75.68983730483541,29.759412492801626],[75.69132486284363,29.755932587200636],[75.70311440922627,29.752288535776977],[75.70641426621792,29.75320364651426],[75.7092179288809,29.756546178542585],[75.70571937442988,29.759695669780744],[75.70463655866114,29.763630638888063],[75.70736250537395,29.769287365838668],[75.71028122695347,29.770608953163123],[75.7123462920949,29.774069854645386],[75.70978478019823,29.777993733998354],[75.7101000322691,29.78042460210249],[75.71661758274323,29.78873639708348],[75.7127216136105,29.792653457943413],[75.71456989730757,29.795997387207752],[75.71414278522093,29.80185748088121],[75.71794667254541,29.803015086097734],[75.71803640885243,29.80866226722451],[75.72087334960511,29.80980336287096],[75.72064366655663,29.813556626762463],[75.73256913163505,29.81253039252212],[75.73778132939003,29.814045767001925],[75.74686146345097,29.807331869944154],[75.75060346942884,29.807621596903104],[75.75614693801285,29.805023004537805],[75.771956972603,29.81834182866166],[75.77879606066006,29.822371638987367],[75.78294554245075,29.820831837605542],[75.78703486586353,29.81608658855477],[75.78876488096358,29.811122707547273],[75.80561153096743,29.8047503549136],[75.8098422249514,29.805653530254816],[75.81579020131458,29.804186943445128],[75.82139346984877,29.80695364084532],[75.82593066541442,29.815315680244506],[75.83026721956645,29.81181513573987],[75.83479892373076,29.814486241363472],[75.8377291823735,29.813037828558464],[75.83489898078206,29.808813748041874],[75.83795869204712,29.797114722453177],[75.83697884387118,29.79427492850375],[75.84046844301713,29.78868543209706],[75.8436580246211,29.789855400679844],[75.84580781616522,29.782296033608706],[75.85288694484593,29.778056498138998],[75.85352414233485,29.776408166581323],[75.85138718591953,29.772716890270836],[75.85830631207179,29.77081716648012],[75.85992613083589,29.767947422293116],[75.86671535430982,29.766554924998623],[75.87034202469005,29.7575617600424],[75.8702238863487,29.74932559066957],[75.88131872060637,29.751148082212456],[75.88447106524524,29.749537803968586],[75.88592325208913,29.74540621036262],[75.89881301820084,29.74626575746137],[75.90077753670914,29.748898535157206],[75.90444772148174,29.748946133178578],[75.90225079174141,29.75152382994232],[75.90630343244959,29.75403750676512],[75.91522342025158,29.74718523701698],[75.91514884570994,29.742868815006805],[75.91941716832456,29.741357747212536],[75.92327624814011,29.737195722754205],[75.93866597897514,29.730690965815263],[75.94110932108946,29.73156247566306],[75.94731689529839,29.72940383154485],[75.95069480151517,29.73196193952321],[75.95482257282212,29.731953752829224],[75.96754458304609,29.729433442462526],[75.97342648652351,29.730427179759953],[75.97532304029406,29.728662366137794],[75.9843894912166,29.727133085986594],[75.98885540546448,29.733952830827302],[75.9948719556232,29.739284614680205],[75.9989285309523,29.74104212405577],[76.0079414647418,29.740904212305683],[76.01670374521082,29.74317098418295],[76.01947775268967,29.747842115164218],[76.0239527812444,29.749061193028904],[76.02607491276257,29.75618144188252],[76.03065376859786,29.754748749867165],[76.03088048630758,29.747637842690356],[76.03238286112808,29.74640613894049],[76.03708204539738,29.743599670821947],[76.04344114383515,29.742726414685386],[76.04962069330219,29.748095054933387],[76.05015926206111,29.75300934185805],[76.05437256286456,29.757746090873727],[76.056792855107,29.76538141289466],[76.0602104578762,29.76467141106055],[76.06706778442843,29.773993760090097],[76.0725230815707,29.778607243248228],[76.07397181708728,29.776047997276123],[76.07675232657215,29.774912771603407],[76.08262107781546,29.781188373960745],[76.08468825938772,29.784553263512432],[76.0829292646366,29.787984523689573],[76.0849687358773,29.80075860699321],[76.08950169319145,29.801162493187906],[76.09805519081542,29.81063850871431],[76.10506110500386,29.811854546298527],[76.11306896592423,29.806066815139697],[76.11581841076826,29.802337353859006],[76.11998340107405,29.800897059971202],[76.11964598217523,29.792314993091974],[76.12392466326337,29.7909417734096],[76.13319946134811,29.804479119324277],[76.14170181878123,29.810865706267816],[76.14158650653978,29.815489610356014],[76.14545825170255,29.8191108236459],[76.15323407239516,29.820056005192633],[76.16082389241662,29.819436432443354],[76.16446919205919,29.817641111656144],[76.17371501139114,29.817941669506215],[76.18484866544549,29.82275587544417],[76.19779482419747,29.84479433065507],[76.2026670671096,29.843045570206847],[76.21198044154757,29.843049875238965],[76.22052722965466,29.837879726031844],[76.22060107925587,29.846733446698533],[76.22220940138098,29.848763453888786],[76.22721957252016,29.85180310522498],[76.23045164353877,29.851514653991906],[76.23242892081906,29.853736423377974],[76.23813445895506,29.852026851182863],[76.24379332422215,29.852441637341375],[76.24384339990932,29.868963223740085],[76.2467319255189,29.87598783115345],[76.24295403723534,29.876744263749238],[76.24100752276196,29.878803013068694],[76.23825861600879,29.878728133872823],[76.229375315403,29.885664972523575],[76.22679231041481,29.88637373056171],[76.22623547441461,29.883819420365995],[76.22228922657543,29.8849821853416],[76.22126846822313,29.883399997915575],[76.21737041949055,29.884070731999568],[76.21291957358326,29.88708079424084],[76.2108119498569,29.891340967377314],[76.20914021116432,29.889906635073576],[76.20952516621304,29.88580447846501],[76.20129071334705,29.88374208992732],[76.19911244520846,29.884610626825264],[76.19948047240393,29.888401949259404],[76.1934310124648,29.885655343494097],[76.18971622633838,29.890428860328576],[76.1863078043514,29.890861569439696],[76.18563034167649,29.892475285988137],[76.1892726157932,29.9087030791453],[76.18778086444922,29.92066365487557],[76.18525300164643,29.92052336932235],[76.1813699907117,29.923651226967312],[76.17914700264163,29.92267487156938],[76.17546296494908,29.923870911918517],[76.1719478150215,29.926306537685],[76.1724931642642,29.928852162649594],[76.17811676616479,29.933401541561462],[76.17815515387183,29.94210203649531],[76.17989618770714,29.94526840645518],[76.18372923165082,29.94833824436119],[76.18880093828527,29.947725522441342],[76.19379787634199,29.952006883659017],[76.19059795872235,29.955185465244682],[76.19300859227884,29.962177536093115],[76.19712794996485,29.962336260575192],[76.19490008673773,29.963764301780344],[76.19533958389721,29.965886367768018],[76.20573438800345,29.974333345921085],[76.20474770634316,29.97695019003638],[76.20589131200548,29.980403606826446],[76.2018185409501,29.984786868134677],[76.20185555782804,29.98709149860149],[76.20293121402395,29.98973792315173],[76.2080299797114,29.986088718658447],[76.2107134073652,29.988189755437684],[76.20650197056594,29.99348050317969],[76.21144947882415,29.995483557172744],[76.20994000371965,29.99819342152761],[76.2110515197634,30.0021791975023],[76.20995335987129,30.005152919828454],[76.21604235466607,30.00798405251276],[76.22624814784662,30.008843943172458],[76.23108771004874,30.013643264328095],[76.23100032732779,30.015871955601675],[76.23286697977578,30.01596978908202],[76.21318853277259,30.02271691767084],[76.21482049496272,30.029103864858506],[76.21367786397244,30.031685441355837],[76.22023977235699,30.034437173145456],[76.22250254860762,30.036928101153386],[76.22219794247121,30.049247540030056],[76.22850304587222,30.05353374140637],[76.22625887822268,30.059360027971007],[76.22892965759729,30.060116484081796],[76.23629647534104,30.06759878427156],[76.24622035472754,30.081890306043256],[76.24754268201227,30.08115669876027],[76.24925782370615,30.082342199078575],[76.24824482500128,30.08485566541467],[76.24964534613996,30.086949546707626],[76.25345729764075,30.088957396370375],[76.24639189162428,30.09436941906169],[76.24117142128385,30.101714756246167],[76.23692693816025,30.10368247557641],[76.23814891284799,30.10544817442807],[76.23623184335297,30.10647818964705],[76.2346267973837,30.10480034793115],[76.23041505605556,30.106294077019598],[76.2234579114039,30.11194794631029],[76.21672059707863,30.110077007619967],[76.2162761546935,30.112465286040294],[76.22040194791019,30.115496236641675],[76.21658368215125,30.124167846360802],[76.21946302428364,30.12626757679492],[76.224647517097,30.127082622625025],[76.2150604816875,30.135253493748856],[76.21456865856103,30.140470049897633],[76.20718210752543,30.144591775777837],[76.20700436776166,30.14950451886323],[76.20951172921298,30.15465978725991],[76.20763104687688,30.15658676054414],[76.21443635378765,30.155963628068534],[76.213417007587,30.15280299030765],[76.2163400653344,30.152205238900123],[76.21598395968105,30.150335439004884],[76.21841540989762,30.147814447226473],[76.22395295768561,30.147094084556528],[76.22713643793216,30.14454619073021],[76.2345715959095,30.145001016404166],[76.23223636154805,30.140093282791558],[76.24330506291578,30.132413259854328],[76.24272561092995,30.129169171508973],[76.24535958273408,30.12821165844877],[76.24681084251661,30.130751712842798],[76.25567438018614,30.126064554547817],[76.25528230239554,30.123631285294003],[76.2529679862038,30.122931843939774],[76.25365846546717,30.121610858622237],[76.26775239267452,30.1144572750612],[76.27515716244237,30.114621322680236],[76.27851647173618,30.110303234235232],[76.28531150731,30.106212555350552],[76.29059998550733,30.107777518582964],[76.29657286676344,30.11444378210287],[76.30753604932296,30.108761649171715],[76.31952265553623,30.0971142015441],[76.31927332453589,30.09581222901378],[76.32173648977358,30.09509782823206],[76.3315017500371,30.099790351979475],[76.33988106971735,30.09874036636601],[76.34412695061954,30.10086456254925],[76.34470515574374,30.10481638967429],[76.34622794118583,30.103922532968433],[76.34612305568986,30.106219020293906],[76.35439633014914,30.116917969287964],[76.36020470831718,30.12020874334828],[76.35214509096173,30.12182172536638],[76.34203486325602,30.126374497424575],[76.33347925908274,30.138205249963924],[76.33392656529698,30.142027024983367],[76.33778288009813,30.143310448900095],[76.34686077825233,30.14281040868199],[76.34747406258839,30.145341176462153],[76.35046613789906,30.14687327269951],[76.35303859936074,30.14305005091407],[76.3592586700336,30.13978474561085],[76.36128906739158,30.12977241484711],[76.36691740880364,30.124219356809533],[76.36072855099367,30.122586678904756],[76.36217592556258,30.120159634131003],[76.36788211946873,30.11764599547094],[76.38885087779997,30.113275533119417],[76.4000365928183,30.11670846433935],[76.39842213519977,30.120616265302445],[76.39482863960302,30.122016253565388],[76.39595046471298,30.126162670740303],[76.39115297510722,30.135057716732582],[76.39761355083276,30.140209569836962],[76.40087134780448,30.13892899866157],[76.40680626984995,30.144954390600056],[76.41006660366405,30.145076224655277],[76.40174909166859,30.153833670493494],[76.39500308075309,30.158011074302813],[76.39137483023629,30.16436350040054],[76.39345936815816,30.166978808260307],[76.38715386051526,30.170634210266552],[76.39633531915038,30.17961935004512],[76.40295703197663,30.18214932924871],[76.40359054098299,30.1867002732194],[76.40638644220192,30.190383751355988],[76.41045864372539,30.19054511816801],[76.41210776822905,30.192026431437867],[76.4227128580618,30.192281624407556],[76.43430433490744,30.183147885333977],[76.43379362021054,30.180756576632877],[76.43036733791907,30.17801617345779],[76.43489170105093,30.175534974103908],[76.44055737464954,30.1658834423254],[76.43649273604245,30.15598558335183],[76.43346042069861,30.15587186338241],[76.42856310580692,30.150593708025745],[76.43221423731232,30.146991192375065],[76.43974492123859,30.143708256725482],[76.43767602927406,30.142266252728515],[76.43746901251681,30.13627820039989],[76.44050071251469,30.131466707350963],[76.4438696104258,30.130504541734176],[76.45084962259133,30.13219518022296],[76.45553963775653,30.13046540265852],[76.4580076206591,30.131868119696044],[76.45798668092982,30.130240106382228],[76.45995646446401,30.129486031897475],[76.45629792185754,30.1154634277411],[76.45708750595797,30.110185302592328],[76.46252443075602,30.10105758622548],[76.47272665313332,30.097708224141837],[76.48203151603394,30.09757147783104],[76.49125687174372,30.09466535560784],[76.50448840370191,30.093865178024107],[76.5138678600088,30.083654656851937],[76.51185122124771,30.072018720909387],[76.52530915021705,30.075867665014602],[76.52983997582902,30.07847183595928],[76.53801501861368,30.074734646376868],[76.54622399974976,30.075873830323406],[76.54835728924209,30.077934004542286],[76.54805773612914,30.08076124847309],[76.55226911902948,30.080314595216237],[76.55637062359749,30.08256774528168],[76.5605195583142,30.093417290637024],[76.57524661543887,30.10061559831148],[76.56701401849229,30.106453089970124],[76.55571797059412,30.11065302938878],[76.54850759894867,30.111748009964664],[76.54566127978443,30.10587456777194],[76.53949999845702,30.108193357989116],[76.54878483072345,30.1212891881254],[76.54556988069585,30.1249228751962],[76.55542872564902,30.124929827637178],[76.55322305979259,30.12195281725595],[76.55360162512467,30.11997886565944],[76.5571555858658,30.11947226103784],[76.56591305944973,30.114075109071756],[76.57630407446207,30.110143393653516],[76.58409150138814,30.109186558709094],[76.58851368115644,30.1114233870467],[76.59933427502921,30.112540664394785],[76.6030498759276,30.118635250188188],[76.61273471271872,30.12677107908584],[76.6234725457027,30.140218940350653],[76.62950633273506,30.142597771285118],[76.63183136313322,30.14214365311644],[76.63409399475509,30.14658737205462],[76.64223025457397,30.149677149237238],[76.63880917083306,30.15181452074856],[76.63326566272319,30.166964539616785],[76.6287262635901,30.16820901665656],[76.62419113235296,30.1668127297272],[76.62243464390153,30.167598353690135],[76.61657292197528,30.17425941086656],[76.61195430221393,30.17587586055865],[76.60029593950718,30.183922317577053],[76.60465192242215,30.188946839600302],[76.60335363046117,30.193099110191444],[76.61069431082339,30.197932813156623],[76.61415852807099,30.204480459676073],[76.61705886742486,30.201049890343885],[76.63626780545326,30.19662166866342],[76.64502180255704,30.188844175122792],[76.64250641106536,30.18617266131959],[76.63539005799588,30.183969575676592],[76.63178536130582,30.180263297432678],[76.62873219157268,30.179446117460458],[76.63114672471582,30.17562844683299],[76.63448973587542,30.17399974305413],[76.63424015694002,30.169749107972457],[76.63590456627823,30.16862814142273],[76.64129329646128,30.169624149722367],[76.64533499389263,30.174843251874254],[76.6472619286861,30.173907258941256],[76.6507697214115,30.1759524042799],[76.65309198140532,30.182194886041508],[76.65608244693499,30.18524566003706],[76.64978387338778,30.191053625097727],[76.65330603286952,30.201091254467865],[76.63882024167062,30.206240692030757],[76.63535663707403,30.20435662151167],[76.62175002614539,30.205139712524684],[76.61576427562449,30.209052668315245],[76.61660442858724,30.2135476369664],[76.62331544742749,30.216949854109284],[76.62736871066812,30.224086091893618],[76.62325476982328,30.228196455715683],[76.6035478058014,30.237801037389044],[76.59999324498567,30.234559791527392],[76.59622017885856,30.237409822112674],[76.59608364391852,30.23879168868925],[76.60262971859787,30.243928741440104],[76.60364379438275,30.249204131527815],[76.6028663941325,30.251671978397695],[76.59609418924165,30.25570521847093],[76.59063963859938,30.25345763040863],[76.59184547415475,30.246037680505022],[76.58532235502418,30.245338389159237],[76.57510329821844,30.23732647944964],[76.57186076182677,30.236318877227713],[76.56794618768619,30.23196115468257],[76.56558434881929,30.231946543863412],[76.56265385302135,30.225761476170252],[76.55083968651172,30.222097174094465],[76.5480396503475,30.222488471258632],[76.54554928591963,30.22524113387241],[76.54760697768923,30.22681272329847],[76.55557309389836,30.226762159057795],[76.56196514703237,30.24152957885232],[76.55813968037809,30.249926703216797],[76.5566530530245,30.26248142099205],[76.5595679756287,30.264884224440216],[76.56200497923037,30.26199617548973],[76.57190276435452,30.265280131444296],[76.57511910856745,30.261920932377173],[76.58060102009661,30.265244796496766],[76.58379459381372,30.27026511086844],[76.58646784984353,30.268578873885325],[76.5879962829938,30.264872651427652],[76.59289695488974,30.261784503800413],[76.60110956072799,30.27036058293733],[76.60867573798947,30.26794422898247],[76.60970640565768,30.270436231550924],[76.61160093372726,30.269568367628047],[76.61439136240948,30.272549444166614],[76.62050537348829,30.264995646815482],[76.62340680609188,30.264594125162994],[76.62721038080268,30.269420270134162],[76.62557396296873,30.271242828378483],[76.63140943881729,30.276131646111498],[76.63033365595892,30.27742628937489],[76.63213334439239,30.28389611168015],[76.63539661749408,30.289635552462176],[76.6388416817615,30.284434819703176],[76.64999191512274,30.290713094109005],[76.65565848973161,30.29843228259907],[76.66616632076519,30.30551579848026],[76.6704937579154,30.311512700909567],[76.67704191668619,30.30790653322334],[76.6818827724623,30.3112952840194],[76.68597362840097,30.3146153763594],[76.68104013835274,30.31825619120456],[76.68856944067014,30.327318280202007],[76.69560797627982,30.321621384017213],[76.70002847979175,30.328097502821613],[76.70484679324414,30.325925199222493],[76.71099787689644,30.325841040777334],[76.71636176776356,30.336066103629978],[76.72227119112969,30.333288032656657],[76.72972787184287,30.33887101863489],[76.7273541563496,30.341109675480265],[76.73260016848852,30.348370425176512],[76.73845186611449,30.346368633115066],[76.74606910990494,30.34958225709367],[76.7451966068122,30.350534776464546],[76.74872464486916,30.352175650835093],[76.74878715323989,30.360996407738906],[76.74539471318013,30.36787678163913],[76.7375278976408,30.37046366209512],[76.73559982108861,30.36834112832566],[76.73336960337714,30.368874290832725],[76.72568858818467,30.361891293435065],[76.71988668237827,30.363375093416394],[76.71894353666991,30.366599353193237],[76.7312172525328,30.379712060662463],[76.72957694589199,30.382305237492908],[76.71946972215262,30.37881159160186],[76.71758888800125,30.38008605665451],[76.71862099926209,30.382525929705103],[76.71282197614943,30.390251602905163],[76.71508649782666,30.397491477731915],[76.71452982531983,30.402486377306975],[76.72218602365425,30.39904925149274],[76.72512335113994,30.40223068404573],[76.72820174017635,30.40041070893911],[76.73796690342184,30.408394928314223],[76.74008399000138,30.412127606305454],[76.73501820506131,30.419127430874155],[76.74102983155393,30.424291022679796],[76.74102700096248,30.426266517005164],[76.74883227741324,30.429209193981908],[76.75759224651704,30.427640786133498],[76.76875775842464,30.430805134079073],[76.77722743784268,30.441269497821533],[76.78382806271766,30.438015843303873],[76.78756610443018,30.433507376267418],[76.78033926486896,30.42958793911725],[76.7773208841918,30.424832207715358],[76.78959840441995,30.41501573150983],[76.7951139515683,30.41871031182488],[76.8038945693472,30.412550979056025],[76.8110956757688,30.416407019994857],[76.81815254779008,30.41223262324109],[76.82336338369907,30.411596717301098],[76.82883913009044,30.414885970065125],[76.83927474825329,30.42609344238723],[76.83620417455981,30.42965955546183],[76.83773050834728,30.43160990967424],[76.8437231732009,30.437414020518286],[76.84676643810974,30.43813016905284],[76.85101029870084,30.435305961384685],[76.85610455304892,30.41769735865415],[76.86827521508074,30.413987290960772],[76.87441688618549,30.409524457752177],[76.88334220548869,30.40869674044832],[76.88133134648815,30.405907435985146],[76.8843216287615,30.40433341767978],[76.88230851139633,30.40051728886351],[76.88391739137523,30.39773197819398],[76.88084382719016,30.39385036233861],[76.88332559474075,30.392133230928998],[76.88620972040209,30.394095892058672],[76.89507804878703,30.386989719342473],[76.8950466850072,30.38476335976522],[76.89794078825636,30.3821476722959],[76.89134766341567,30.373817284224835],[76.89027178084429,30.369482827293144],[76.89652825843898,30.359715691239476],[76.90182153543658,30.362383211991222],[76.90577169813378,30.36183946094755],[76.91555116974509,30.365252733320656],[76.92113761193566,30.374656930011625],[76.93584561399649,30.384711978013385],[76.93941792731886,30.394782175777177],[76.93189167747681,30.400501616879307],[76.92124555889006,30.400332434136306],[76.91832636030513,30.398001548729777],[76.91117974029878,30.399907965504603],[76.91798332783414,30.406486269284553],[76.91579220210885,30.41481460472187],[76.9111999604775,30.419196846351],[76.91471263464818,30.425090098988697],[76.90973580897236,30.429463901023894],[76.90732820094172,30.425053098182154],[76.90181313708698,30.424491651224766],[76.89862031256482,30.425799818171413],[76.9065288395777,30.43581767737881],[76.90463045863386,30.434027713025156],[76.90096060084808,30.435510607209498],[76.89735315710989,30.434218245585768],[76.89796694090923,30.43140980852741],[76.89489526408458,30.427325929579517],[76.88640960004436,30.429673503211134],[76.89059891493142,30.44104480186765],[76.89603982106281,30.439539650752273],[76.8969639781827,30.441718540435158],[76.89520918125893,30.44604233982761],[76.89897657452504,30.446463312556123],[76.90216450233058,30.4533411415718],[76.91225581780459,30.46579812452093],[76.91101982131359,30.4708702228373],[76.896935461164,30.481147394948984],[76.89863427777424,30.483318078022698],[76.89893553139801,30.48884601286392],[76.90359841025509,30.491443369095208],[76.90868929053097,30.491938752136797],[76.91075892989383,30.494332964612276],[76.91890437408817,30.489495216374344],[76.93112342926267,30.500919364554],[76.92856974348875,30.507604634688352],[76.9292157121281,30.517143490314293],[76.93199534485723,30.522238886500602],[76.92147379026108,30.52623901149456],[76.91558119593346,30.5257628040683],[76.91222267895377,30.53042737397816],[76.91246898442826,30.534003861415258],[76.90620205852849,30.537176203798595],[76.90213252589973,30.536495981247164],[76.89604715670541,30.538170330464606],[76.8881387213207,30.545937868987142],[76.88647682457035,30.54987996925633],[76.88715443456893,30.55108407720792],[76.89393370740447,30.548692992263344],[76.90491681280037,30.5430036368446],[76.9161401663308,30.553716960845307],[76.91751834816496,30.55916476937442],[76.91530451482595,30.561966347750825],[76.90891596691819,30.564782491435693],[76.91769259617725,30.576064427683885],[76.91492051648302,30.578451146784623],[76.91511494514816,30.582230639922685],[76.91977659510994,30.585210418654896],[76.91659287860642,30.58848578271795],[76.90963452122914,30.591929076640348],[76.92019736958227,30.59328798672273],[76.92714728099928,30.60365885156964],[76.92231487208181,30.605636036021256],[76.9259879799723,30.610117774979916],[76.9198775441883,30.611815820891067],[76.9159763261994,30.609945390025633],[76.91349494222939,30.61146149546941],[76.91182175814752,30.61308565924451],[76.91327694446618,30.614018803227687],[76.91304868165415,30.616909949275204],[76.91005353949508,30.62620166933798],[76.90870304194134,30.62680636418675],[76.90571925897903,30.624493376546614],[76.90275184242293,30.62442177456906],[76.89969669100624,30.628188402980197],[76.89552984478107,30.628973842264735],[76.89279509457849,30.631097584347717],[76.8959219414363,30.633096049074705],[76.8964388625935,30.63588327751709],[76.8850957402795,30.64533324913236],[76.87755296952106,30.64420150512661],[76.87478324700615,30.64090458118202],[76.8711945663793,30.6421767043557],[76.87423539505708,30.673959313391787],[76.87642171749052,30.680557589007496],[76.86828196861507,30.673512592676246],[76.85919991844759,30.66105019355051],[76.85299762633254,30.657247213634275],[76.85116110876905,30.658239084436026],[76.84683664504243,30.656713780266834],[76.8446022151306,30.662193089288674],[76.84805486746724,30.666167234010555],[76.84576892636036,30.668687880714828],[76.84170993905472,30.668005898274185],[76.83799637823032,30.664725944018038],[76.83254493845394,30.6631682550508],[76.82999310141285,30.67591750690268],[76.83126482300439,30.6790795277075],[76.82921720314576,30.681027176125202],[76.82729681347746,30.68218687902152],[76.82182440163244,30.6784952540314],[76.82075846880115,30.67494805430321],[76.81659846504347,30.67293832339838],[76.81632240287519,30.671434954119444],[76.81179294270243,30.670263169899936],[76.80857098581559,30.667368860115392],[76.80305870404334,30.66641406305318],[76.80025327259753,30.670258567958573],[76.79632435954841,30.66771247008289],[76.78995438700409,30.675635960812215],[76.78121250098698,30.67434242967625],[76.77659479571058,30.670401333121585],[76.7639987032383,30.6864161738395],[76.75898589015387,30.686609032731965],[76.75241491058159,30.68454395931862],[76.74991215569102,30.688360622087796],[76.74773485952954,30.687595797048598],[76.74714151779278,30.69555269431115],[76.73929008949601,30.692905420181678],[76.73959525079128,30.698117403057402],[76.73786595344517,30.69985967367097],[76.7393269114395,30.700378075487404],[76.73907574338438,30.70579887669342],[76.72999745805627,30.706879237587305],[76.72905877787318,30.711826890511258],[76.73133598376222,30.71263239147269],[76.72867675941716,30.71593594686612],[76.73118042609772,30.717455983217462],[76.73106894337434,30.7236071766271],[76.72123958562034,30.730018019706325],[76.71415911485656,30.740976322803107],[76.70743655625819,30.739505441059425],[76.70671698954594,30.74050367193234],[76.70515164372233,30.742971970106787],[76.70661335001328,30.744696357799224],[76.70587253544963,30.74744709416185],[76.70842967524582,30.750394549536022],[76.70517414831681,30.756075735008157],[76.71165812964709,30.76166224844295],[76.72483343156006,30.765993658920706],[76.73062130658006,30.765065507285147],[76.74394136032299,30.76969890657734],[76.74537014425708,30.772654223430614],[76.74364707582916,30.776150782646177],[76.75220683560894,30.780265943538478],[76.75168437364306,30.784293401978978],[76.75875159515473,30.78783268701824],[76.76168881035102,30.79152455911813],[76.77148161745271,30.795266600596648],[76.77540681147657,30.79062834023525],[76.78275468375097,30.789230203144243],[76.78699886414232,30.77958294168464],[76.77928838331023,30.777995148849303],[76.7826404216401,30.770787388909003],[76.79012625088762,30.770848505613312],[76.7913264396331,30.767517382547712],[76.79149587357377,30.76897699637429],[76.79798860000335,30.771329365104137],[76.79750727099601,30.77243903138413],[76.80248745457436,30.77570362063335],[76.81316800648426,30.780191142286665],[76.81850242272859,30.77795899263694],[76.81733775247116,30.774913429533306],[76.81966812874357,30.774957438592857],[76.81911822324574,30.77294274619412],[76.80502107647641,30.765274799242118],[76.81501363565968,30.752981503025577],[76.81779296655488,30.75465674556878],[76.82002176762313,30.76107361877199],[76.82425554732012,30.761314576148447],[76.82648464662908,30.763519513077036],[76.83785601377225,30.754532760003606],[76.84012272464382,30.758947971882023],[76.83894510157829,30.765951791615723],[76.84025954165485,30.770678695986266],[76.84254503899398,30.77155549590558],[76.8417572506258,30.774512633578652],[76.85434761543982,30.787314839750042],[76.85067426320757,30.79115669702428],[76.8526536290709,30.79354740623254],[76.8569634511567,30.79480192592862],[76.85414656888597,30.79924837265298],[76.84685185621515,30.80373438514269],[76.84530422247397,30.807247353417086],[76.84881360342082,30.81419808589673],[76.84812508697634,30.82873815496605],[76.8458142257052,30.831615090803922],[76.84667584570825,30.8339604596315],[76.84318080726328,30.836072259110875],[76.83765343199758,30.836083657781465],[76.82979224081029,30.839128441199982],[76.82611703535358,30.840813824939282],[76.82316322917231,30.84454299779622],[76.81397388602394,30.843041037083072],[76.81313946970263,30.84823617666957],[76.81464742036609,30.85249884668804],[76.80469899900604,30.860643271090698],[76.80123448711103,30.866036096243434],[76.79046145903253,30.869764911508216],[76.78433238230807,30.87791127163055],[76.77737536072557,30.89665356209729],[76.77673348031908,30.904286662733107],[76.77604841610025,30.90582978622469],[76.7714147890838,30.90707493498352],[76.77204781569483,30.909454147786956],[76.76687432634543,30.916580134673296],[76.76603621794828,30.920863352518026],[76.76002861500982,30.92271213538135],[76.75953912570644,30.926080911590475],[76.75692301959667,30.927662092130696],[76.74980230700312,30.9274437236267],[76.74685535227253,30.9320516450192],[76.7399400933676,30.935501420596278],[76.73973437916753,30.938080685063426],[76.73717144613607,30.939881381553356],[76.73604601968013,30.94774224768549],[76.73716370176001,30.949607480718786],[76.73372716789451,30.949324640075226],[76.72227039791728,30.961099231416856],[76.71684834562707,30.9598606598215],[76.71137023756484,30.964940038889647],[76.70959404726258,30.969772775785156],[76.69973166204885,30.970919791228283],[76.68361007554847,30.967911710049066],[76.67321612753673,30.968831639073308],[76.67288915065477,30.974191816872597],[76.6683357270235,30.976803388558263],[76.66575087060754,30.98075451694508],[76.66247701175854,30.9822991502965],[76.66122982764898,30.980898910630675],[76.65906937669573,30.981445884884465],[76.6515596980757,30.98772248209936],[76.63802097462973,30.990295454190385],[76.63380009204525,30.995933326658886],[76.62471386650836,30.998826576934192],[76.62681406745551,31.010898194585067],[76.62672070644636,31.022100530503607],[76.62906806626751,31.023532075669326],[76.61700253587001,31.0298599364337],[76.615986260111,31.036569846989075],[76.61096144283943,31.045884577326447],[76.62261919828505,31.05503266584238],[76.62179849115327,31.056812339987726],[76.62339084662254,31.057524925848828],[76.6179286665886,31.070226432068345],[76.61803411173496,31.078230956576718],[76.62313867694586,31.079622646336222],[76.62565631871735,31.091379277415363],[76.63216743545739,31.097877600280423],[76.63187998354964,31.10002351511615],[76.63779454348258,31.103750368297003],[76.63859073469193,31.10810390155727],[76.63606851690241,31.11637389654279],[76.63297639981178,31.1155577695313],[76.63073283672847,31.11688072067526],[76.62506132408049,31.11514457712397],[76.6242140564607,31.116644582487915],[76.61696931886574,31.116175349086323],[76.61336566601807,31.122262629701442],[76.6020126712191,31.12379407639051],[76.60163829383286,31.128599836346705],[76.60417857225116,31.130647908534208],[76.60431020149146,31.133861959944706],[76.61062810768189,31.140621416569584],[76.60894286461563,31.14313417901814],[76.61238964556355,31.14822716841099],[76.60993402078437,31.149447772313735],[76.60727506503555,31.148523728316228],[76.6065510741205,31.15165043335867],[76.6017912023656,31.15315668356978],[76.60528165760599,31.16020208350108],[76.6031138207045,31.16501861390251],[76.60903996710793,31.17330180682901],[76.60753516773447,31.174433647952362],[76.60765204933274,31.17790199483995],[76.60172865626562,31.175759683756883],[76.59998199089178,31.178514538590417],[76.6112148423097,31.182346237621744],[76.61775449762806,31.19291368486895],[76.64539324065565,31.20912093473324],[76.64229066717515,31.214235057634497],[76.6345362443526,31.21786140922465],[76.63684861748838,31.21770582094994],[76.63716914356831,31.22080985331087],[76.64177368762746,31.22273518474582],[76.63589069269699,31.223174973264804],[76.63438718779582,31.22471694325886],[76.63175780997608,31.223824685668262],[76.62774934661697,31.226556428853943],[76.61414939400117,31.217890643120835],[76.60623839212968,31.216750337772517],[76.60358751582854,31.21441916672157],[76.60116352252709,31.214904383077716],[76.60087411498696,31.21257102453628],[76.59319233712483,31.211694035812357],[76.59268195660121,31.214309245708836],[76.59131661438741,31.21421713386686],[76.5923518266326,31.217545276475636],[76.58896033609211,31.21919827320513],[76.58859761793994,31.22284849141111],[76.59189013839067,31.223028004486267],[76.59276861078847,31.225947115943846],[76.5952341053577,31.22675591190211],[76.59470760366798,31.234349581171788],[76.59837470003264,31.239648434527798],[76.60978450429016,31.243581910898637],[76.61214464174793,31.247890525404546],[76.61169506189766,31.2498379405365],[76.59258412198194,31.265067174200926],[76.59232343627637,31.268419879821252],[76.58771752857463,31.274257866455002],[76.58347623447027,31.27621007049725],[76.57912364000053,31.271169195989412],[76.57511795063903,31.270291856677602],[76.57127187393719,31.266223435069364],[76.57193190749895,31.264847917519944],[76.56951056692257,31.26146871344315],[76.5657441043111,31.262207911692272],[76.55999006074303,31.252821904780813],[76.55644787871191,31.252458660977634],[76.55281391221499,31.25518051607907],[76.54918119347796,31.252815701988304],[76.54424209884068,31.25622438567969],[76.54358450869653,31.258957919587463],[76.55017397649569,31.269934210701614],[76.54880499520664,31.27433297096086],[76.55126995617661,31.278808651598617],[76.54289322274603,31.28249325900665],[76.54106241487449,31.275018129054665],[76.53770087865716,31.27060809470192],[76.53994826766528,31.266319547374287],[76.53931356659453,31.26110738961851],[76.53139314319235,31.2564452228246],[76.52376839757098,31.25819710983184],[76.52390236692253,31.262335640946052],[76.52604104630657,31.264943092902367],[76.52886880268379,31.26571420891276],[76.53052358298045,31.271112134004905],[76.52895650700162,31.270890226300583],[76.52740279885252,31.27722928968465],[76.52130244575925,31.280258518764818],[76.50387476722629,31.266939684422923],[76.50113993437868,31.269973279587813],[76.49732354250538,31.270544016100796],[76.49518738469236,31.281622069303577],[76.49724464077907,31.28599379545531],[76.49532473799763,31.28869177303673],[76.49157810928934,31.28847712353308],[76.49206525758306,31.29386659861976],[76.48887565711446,31.29621797932883],[76.48613538856108,31.3039772804771],[76.47953005202243,31.308253582019024],[76.47477469609842,31.301957975058897],[76.46339071301541,31.293466931588743],[76.45928423806892,31.285736913820962],[76.44275229845181,31.27722366277994],[76.43967313147434,31.279040802343626],[76.44096087990887,31.28762626262605],[76.45853696192341,31.29535192203835],[76.46273599029362,31.29821109944158],[76.46379847179762,31.30145889711924],[76.4546113241318,31.31176823276666],[76.4464443068959,31.31713614092148],[76.44022927487349,31.319179347586086],[76.4358012461744,31.326124542898587],[76.4317317979873,31.32686661216119],[76.42511610117847,31.339617351703584],[76.42659276711385,31.3444587729704],[76.42399988874242,31.349054426841096],[76.41848701767529,31.350077006895923],[76.40786158189967,31.365930809372475],[76.40418129916496,31.37787055842091],[76.40107029050395,31.378505720116355],[76.39264869161484,31.3895493453436],[76.39293615969228,31.391035426399792],[76.39441316698748,31.390456964926834],[76.3983578140288,31.39340108387108],[76.40377778402419,31.392267267820948],[76.40329635889712,31.39689274322462],[76.39977247734498,31.399505896784333],[76.39685275504223,31.40738780007371],[76.38798596636968,31.40912522757152],[76.38994422182382,31.416592702832627],[76.38313763571209,31.4231196255505],[76.38320818130966,31.425599320207652],[76.37921670060099,31.428436030440874],[76.38059267886777,31.4310375261889],[76.37514520694997,31.43700602526201],[76.37395535871175,31.437225985405007],[76.37338220122115,31.43333431219585],[76.37111266963957,31.432468547722117],[76.37024591037475,31.428756581595028],[76.37279894037853,31.424867835346287],[76.37060598029346,31.41540763548845],[76.37248576341597,31.412787876088156],[76.37229467199211,31.409025354767774],[76.36778644350106,31.40394848291108],[76.35929754013594,31.403218381075774],[76.35674181877957,31.40043602556769],[76.34848447594187,31.397794203623384],[76.3470275962989,31.398322428580453],[76.34655430541676,31.402402041632723],[76.34337959182903,31.402368151035652],[76.34277385873125,31.39827377538703],[76.34222975096029,31.400908244500773],[76.3310808722585,31.401245007532562],[76.33181131846716,31.38391520628568],[76.32960398084596,31.37858582702743],[76.34170573850223,31.378150768931608],[76.34076598303574,31.363523957995582],[76.34265068173949,31.363290699186923],[76.34240654389978,31.354783028260833],[76.34609325947021,31.354452538692815],[76.347054202601,31.349151785721237],[76.3530423767765,31.348895672409096],[76.3544360940752,31.34495869404424],[76.35189367137832,31.345052274070024],[76.35137101807126,31.34711651797023],[76.34719141397245,31.34685269344457],[76.34680821692673,31.34340833086921],[76.34516760306212,31.343265845800115],[76.34394021782144,31.34056821201125],[76.33770942665397,31.340262056319432],[76.33557282686985,31.34919984831698],[76.33406649946207,31.349412557363543],[76.33024238117905,31.348377635379705],[76.33135812918609,31.346597360245475],[76.307561099743,31.342646289184874],[76.312983892245,31.330054110440734],[76.32259412215512,31.32166181038415],[76.31120874488677,31.319503415017266],[76.30443718049469,31.313913568274476],[76.29301924109393,31.310367921185605],[76.28948551580292,31.30681749330956],[76.2866821855166,31.307596811634564],[76.28452589735635,31.305108028183614],[76.27573265824769,31.300644056402216],[76.27072917686245,31.302965193138338],[76.26894013885497,31.313125283710097],[76.26746725752186,31.310683791484088],[76.25678133188995,31.31067565075559],[76.2500627654047,31.30790015012772],[76.23948709629582,31.308516322046895],[76.21393649612928,31.299454074122053],[76.19095534357666,31.300047033839505],[76.18626696334529,31.30214717855483],[76.18428566969737,31.30570710251557],[76.17978880399639,31.30659228180074],[76.18134234416053,31.333712254286166],[76.1787887239636,31.340531812471596],[76.1589971826594,31.34367389666507],[76.1533430901414,31.349384255666475],[76.15209073712572,31.352779836194472],[76.14932216535269,31.353320586205026],[76.14881400546443,31.357970169214944],[76.14685480498261,31.359039872989857],[76.14859028363621,31.361007017197164],[76.14727014285084,31.364566216536346],[76.14772750660303,31.37961671913279],[76.16091055918028,31.38844763382886],[76.1685420834888,31.39630537019069],[76.16975811851587,31.39900838362946],[76.1663533365024,31.405791268020614],[76.16860606779153,31.409711237727283],[76.16621223812072,31.412534052954225],[76.16012795498959,31.414758349737905],[76.16254280344141,31.42126633669096],[76.1566918559087,31.430539172272947],[76.15254042657044,31.43352345375007],[76.14573063077817,31.433937859173678],[76.14061694946375,31.441806105201497],[76.13895319948897,31.448754618975276],[76.13309765348032,31.451950285351355],[76.13544577507282,31.458909839763507],[76.13463585670763,31.461469622906375],[76.13100707528649,31.46359259994501],[76.13066169641594,31.47109205190242],[76.1287308602392,31.471644247402512],[76.12828040542986,31.474101097020935],[76.12161828728044,31.47738107627647],[76.12080746790498,31.47997791415023],[76.11701552098725,31.483067589867723],[76.12042744640384,31.48791728262355],[76.11946133706186,31.49365475533878],[76.12081320364808,31.497602259868348],[76.11307060085805,31.49994023188608],[76.10965140986747,31.506963627270114],[76.10652660128703,31.509866308037843],[76.10147455877411,31.5228100054015],[76.10201708820516,31.52567038283918],[76.09780834096185,31.533067220478326],[76.09848926394722,31.536457821582587],[76.09195062911506,31.541684016462654],[76.08858509629297,31.547640462974368],[76.08483656046134,31.548503876704636],[76.08150788012547,31.552056633945444],[76.07702951612609,31.56052947141113],[76.07307615542649,31.56344619842148],[76.07201293371074,31.569639966091213],[76.0660536646261,31.573469554056718],[76.0643719869732,31.579176355741],[76.05924559719246,31.58120642851649],[76.05596075104921,31.58550746655637],[76.05749462799011,31.58863820458352],[76.05331512270598,31.59343775180291],[76.05662944257368,31.59397157643725],[76.0579644998843,31.596327610932494],[76.05514925164911,31.605654804334783],[76.05270008755342,31.60554215952877],[76.04909558130623,31.602666947950226],[76.04609385359782,31.60334743381361],[76.04065866793816,31.61053364484675],[76.03698707101395,31.60994615061108],[76.03552162413816,31.613598719609957],[76.02839555399225,31.619385477066693],[76.02762230845018,31.623256638137438],[76.02308188344105,31.62533467012682],[76.01770459779473,31.632182871513464],[76.02100977191452,31.64062743364356],[76.01711625877581,31.64535152435607],[76.01840911143775,31.648922744698652],[76.00891211776249,31.65337273896186],[76.00594059590551,31.661921492253803],[76.0047506317846,31.675100436440868],[76.00153745682799,31.68029038557264],[76.00008279063391,31.687599372024327],[75.99307566102489,31.69691164609561],[75.99162284536027,31.701483808157352],[75.99293082654992,31.703462877038856],[75.98892347530514,31.707730566525214],[75.98869132997446,31.712759383941552],[75.98303067077175,31.71888048329196],[75.98319271786586,31.721528286614895],[75.9794387930408,31.726083360531373],[75.97839126129979,31.733721489023086],[75.97442437287033,31.73494027644462],[75.97261746827019,31.738617589345726],[75.97244741179702,31.741513137944423],[75.97539201294155,31.742570928392098],[75.97511856217584,31.743794022569418],[75.971088285925,31.74923811756461],[75.97232411712596,31.751253854948658],[75.97070427680228,31.75679339170976],[75.9662016403239,31.766566412304403],[75.96337480651646,31.76881502544443],[75.96318953797228,31.773911642099364],[75.96018221106469,31.781157535703905],[75.95307855927501,31.783319153564307],[75.95303625221841,31.78963048428241],[75.93665079907807,31.81545157269389],[75.94177628515364,31.812729230640105],[75.94746384171256,31.81304987069331],[75.95695085330844,31.816334877980363],[75.95806174951466,31.818449236638347],[75.96733011206864,31.82384429649501],[75.96937396618961,31.823865011763456],[75.97323419495041,31.81846729447725],[75.97556880947431,31.818785330783104],[75.97852504559845,31.81303650724635],[75.98191107348367,31.814034342098964],[75.9834555595281,31.811637940002125],[75.98650324145319,31.812270698200784],[75.98646171143928,31.817978882008866],[75.9767228966794,31.825358120807206],[75.9748231125671,31.82839784569289],[75.97119357745943,31.82851776997329],[75.97087357419902,31.83347737403445],[75.96593416604975,31.83831690244972],[75.96115886303487,31.85489290175937],[75.94508325500567,31.88365753106057],[75.93870975028568,31.891103698952563],[75.93661150497088,31.89888053382432],[75.91551519305587,31.93107392776259],[75.91153179718474,31.93988594140051],[75.9103671026728,31.95017612387864],[75.90366725438311,31.952783995121422],[75.8924567629309,31.96184469375064],[75.88263490251626,31.965885772311204],[75.8829843184157,31.968951949471],[75.87421925496592,31.969524687016982],[75.85694212419311,31.973860933234988],[75.85100296299781,31.98220711316343],[75.82166791864276,31.98397811604054],[75.79961422002714,31.99381456068786],[75.77973357033832,32.00470791718585],[75.76491824834709,32.01997599935231],[75.75077717306206,32.037748111128856],[75.74243107577598,32.03943639456496],[75.72957785313,32.03613799572282],[75.72341823727913,32.03303120433207],[75.71070120821341,32.041459721652586],[75.7078382450636,32.045040303179896],[75.70796802287605,32.04950817779244],[75.69830649197668,32.058049813387164],[75.69099291288825,32.061262776951295],[75.67825501416186,32.063355383659],[75.67407278249081,32.0671636012842],[75.67461823054818,32.070559828678434],[75.66319029199998,32.074064594905316],[75.66287389188221,32.075788057830344],[75.65816910482049,32.077707219084154],[75.6542666956655,32.077646875168064],[75.64718857848777,32.07301131608798],[75.63656850116281,32.071394654969325],[75.63133805053955,32.07447443471695],[75.62039726298008,32.07258929871828],[75.60170399655235,32.065839353349446],[75.60069829755746,32.069101433324036],[75.59482340543086,32.069865839063034],[75.59595515961963,32.075265275771145],[75.59424083898595,32.07895078066455],[75.59817391931966,32.08229561107293],[75.59640747843319,32.08613798874343],[75.60084237654925,32.09308306560453],[75.61087089349667,32.0931591619817],[75.62034712710575,32.0978741240617],[75.62650967954927,32.10627209292728],[75.62771086362807,32.11690131220219],[75.62548474133595,32.11823449498165],[75.62893382466599,32.12117511649704],[75.65294587036392,32.131178206695786],[75.66126670073601,32.13687294736042],[75.67305892050496,32.158765597002755],[75.663880539498,32.16237940424117],[75.6643987416528,32.164608703674965],[75.66614216590509,32.16432816792292],[75.66650453730753,32.165560027582785],[75.66720189586933,32.177597247369505],[75.6588772189112,32.17739862702642],[75.65903008342644,32.18262330254744],[75.65676974610182,32.18290358199597],[75.65974314543773,32.1835113596791],[75.65972999500029,32.187192863663185],[75.66315279182845,32.18973252471037],[75.66189947671711,32.19303900218777],[75.65783632841504,32.19396653061873],[75.65501231441932,32.19730285593756],[75.65185139805602,32.196913554920776],[75.64519358193851,32.19285693485202],[75.63744416722368,32.192652460735985],[75.63712970387364,32.187156910425756],[75.63280890707001,32.186564733298546],[75.6312409094197,32.189316732006695],[75.62421351291952,32.19032402515167],[75.62717703977047,32.204014614643974],[75.62719550643777,32.20735394630982],[75.62514106926447,32.209346970895794],[75.62648589665213,32.215505539369666],[75.63181241760344,32.215872940018485],[75.63728581579866,32.2185682551532],[75.63877319773708,32.22189751108763],[75.63662312771524,32.231444896927336],[75.6264599586966,32.23233153679576],[75.6189718980339,32.234920569952095],[75.61786247506477,32.23670714717985],[75.63294785937647,32.244924082116285],[75.63848871745627,32.252020439657734],[75.65506759584358,32.25101821954965],[75.66534306505253,32.253436205300964],[75.713323661819,32.27263475006386],[75.74480385881797,32.27690549277255],[75.77055113613278,32.28868730751682],[75.77297957878982,32.290266583380124],[75.7814952384757,32.30909066851143],[75.78937401508301,32.31519774278391],[75.79779638023504,32.32462671614677],[75.80317602126408,32.32852061832937],[75.81521307506704,32.33037703048306],[75.81347310753198,32.33584183697846],[75.80789687020304,32.3411145000106],[75.81120736863754,32.34855244254552],[75.82701180492685,32.350529160211046],[75.83472472378661,32.35703636038848],[75.84414959621932,32.35584349600442],[75.84778138879328,32.36913402432958],[75.84737434507007,32.37385498797309],[75.85652736663654,32.384755403512514],[75.86410463539681,32.38836053902714],[75.87347687553702,32.39554087007179],[75.88716549995617,32.396100032154436],[75.89376741032034,32.39325560939362],[75.90125052126582,32.393535629165676],[75.9052049877915,32.395183040687655],[75.91140007541799,32.394160957403564],[75.91609398477992,32.397037104636404],[75.91867149028194,32.39542198414834],[75.9216898547894,32.39653207278667],[75.92332014162152,32.39125484702166],[75.92905737860896,32.39442455242231],[75.93284392126196,32.391480736469696],[75.9347380648526,32.393384884697014],[75.93647378066142,32.39742020501809],[75.93220472052998,32.399029621636664],[75.91799271337177,32.41443328435168],[75.92059007523484,32.429128594832314],[75.90788775248863,32.436481928606064],[75.90385430787975,32.4441996868393],[75.90175045797594,32.452754423275636],[75.89092476167231,32.45724952644503],[75.87662841708202,32.47240897656403],[75.87483388228334,32.471036214110555],[75.86776216829693,32.4785278137253],[75.85757394885829,32.4839064134401],[75.84720407030628,32.497067107679634],[75.84903596783423,32.498197908409935],[75.84378025389024,32.50912556032926],[75.83873440705788,32.5126967060539],[75.83436281501653,32.511786890345114],[75.83176605143146,32.51059552759939],[75.83323705887891,32.50428791263114],[75.8260037864819,32.50389045680204],[75.8245009463341,32.50181363748707],[75.82604636752467,32.499516727370626],[75.82054812642029,32.49230374520096],[75.81289258655097,32.4882721463196],[75.80088835359521,32.48537060888064],[75.77679087362218,32.46501909840167],[75.76270892544913,32.45977513413206],[75.75890054115831,32.46047324235149],[75.75251897585525,32.45530807668508],[75.74047604437534,32.45502005225488],[75.72852439879631,32.45269366494316],[75.72874362186163,32.44742222541426],[75.72726121299662,32.44574612028379],[75.7295911715524,32.438952312089],[75.73508007107618,32.438975026876484],[75.74374282360161,32.43203983048344],[75.74248520286508,32.430402219866785],[75.73734517665834,32.429649438251815],[75.73057038102617,32.43288625369502],[75.72842924924142,32.432505586802506],[75.72762038280342,32.42892833677174],[75.73175311550567,32.4251358505881],[75.73191149388013,32.42293712038597],[75.7235322442685,32.41018764666944],[75.72249291324768,32.40545692021213],[75.71483582019125,32.40748368547268],[75.71137611967289,32.411042801408236],[75.70118199830283,32.39957828528314],[75.68698878300208,32.39050836399074],[75.67902478951197,32.389719888557366],[75.67405436523084,32.39362257679627],[75.64766928675927,32.387453765912454],[75.63107575774796,32.37949013548933],[75.60953556130157,32.37679361321626],[75.59666691997207,32.377677041631344],[75.55978194079422,32.35712889855709],[75.5394797665398,32.336227378171785],[75.53708899922576,32.32599987927934],[75.5421773193031,32.32187537940995],[75.54285763592561,32.30786035554852],[75.53940376277853,32.30012841272335],[75.53646180088431,32.28265153454676],[75.53342603870473,32.27765453330259],[75.52887414131109,32.27843025469117],[75.52543425762791,32.27745987431753],[75.52561246810893,32.276216160336496],[75.52093401515978,32.277011736833074],[75.52094780160444,32.278993777983686],[75.51864733563774,32.27957960606209],[75.51815969776217,32.28128005355971],[75.50930624637664,32.283752892302594],[75.50341341040226,32.29166453415205],[75.51209740898244,32.307935936155026],[75.50487027567213,32.31272586124585],[75.50265209089389,32.31127482516238],[75.49034103206462,32.31700280915235],[75.48627383056403,32.31711824530199],[75.48209885278891,32.32043846870946],[75.48576912918963,32.32420465796661],[75.48016003597918,32.33432807515903],[75.48502133561453,32.33795782312592],[75.48650788032309,32.33733089160465],[75.48748484311037,32.339870872464616],[75.49463677575328,32.34103565848673],[75.48914421110317,32.34599461562208],[75.48439852823815,32.34164813570776],[75.47851720417411,32.33896921799295],[75.47507985104507,32.338847877466634],[75.47517528716254,32.34031526175288],[75.46855823299934,32.33897008703068],[75.47159091665243,32.33375538526719],[75.46601999734997,32.3299534946503],[75.46884732702745,32.32838708597664],[75.46753143707002,32.325555537365204],[75.46565855839879,32.32696843897421],[75.45888717456808,32.327428150674564],[75.45033752353015,32.324647770687065],[75.44830267501995,32.326469038975034],[75.44104300023847,32.31842985977162],[75.43170417383355,32.317320188366516],[75.43102006182892,32.31594404669813],[75.4267429024869,32.31837482996911],[75.41900739459095,32.3200466246675],[75.41075838272918,32.32894230266468],[75.40386910579723,32.32773613162899],[75.40209016395526,32.33054668564101],[75.39946810381177,32.33066229428934],[75.39384557988951,32.327559565088556],[75.37988362867212,32.33504570511458],[75.37630633059825,32.33523910645715],[75.3751716407151,32.337839361627495],[75.37161381182835,32.334485829788086],[75.36334142670124,32.33347387095428],[75.36166883011754,32.33432555064555],[75.36263322727056,32.33615088987095],[75.3555370809051,32.337049181205266],[75.34927828925025,32.345024652092754],[75.34140744027533,32.346092764438154],[75.33830524229057,32.34120199292238],[75.34133827089676,32.33811498776344],[75.33924947945202,32.33595306924199],[75.33656981933252,32.33731726302276],[75.33523123972769,32.33522381000135],[75.33568886219466,32.330044965198525],[75.33165941059725,32.32692798957067],[75.33727694168314,32.321963138394445],[75.3359537439309,32.316601099223654],[75.33221842141877,32.31604243763407],[75.33022799998922,32.31357687593406],[75.33465626584353,32.311352118749774],[75.32388269248769,32.30251941517075],[75.32100632288052,32.29736283850644],[75.35021790098627,32.290056333749604],[75.34381032945575,32.27897797152723],[75.37178271486472,32.27973479861509],[75.38146525017207,32.268971331838074],[75.38004450885467,32.26646302432317],[75.37400272412131,32.265863713006574],[75.37044910833326,32.25817722194306],[75.37030338093292,32.24236410819987],[75.37423750061747,32.2413768370106],[75.37249873143497,32.22603706838868],[75.37168785905894,32.2246896299374],[75.36860670860132,32.22633648132887],[75.36583236335595,32.223879566250304],[75.36554121398247,32.219903046284074],[75.35769966805209,32.21820025739832],[75.34214898606761,32.217101053110895],[75.33674258692125,32.21961100604109],[75.33134920975321,32.21966584117648],[75.32405799063054,32.21109335971833],[75.31967610479433,32.208431955839515],[75.31627203963647,32.20816960624782],[75.32016261618253,32.20425993753576],[75.31196921003684,32.19954801090341],[75.31024501422323,32.19478448473488],[75.31358945370411,32.1895845222302],[75.31839749671784,32.18766536562737],[75.31624308064667,32.181044624774756],[75.32237280505645,32.17972979658455],[75.3139324556324,32.172231515156845],[75.30800007222594,32.16870109288647],[75.30672565928182,32.16919445292579],[75.29965216932611,32.156743235483596],[75.299400502706,32.15353605904674],[75.28786324996753,32.15313789922448],[75.28538133868649,32.15180470552503],[75.27732269420646,32.13709604551771],[75.28335534037844,32.13203452843411],[75.27930767993021,32.11814544960622],[75.27223849919294,32.11316018059628],[75.2627205029063,32.11222520377031],[75.26157595401293,32.11080807682162],[75.26613030919715,32.10920372467759],[75.26631809931234,32.107491637681015],[75.26115332002794,32.10162563609747],[75.25866648418248,32.10242062458769],[75.24776769645581,32.10091272024487],[75.24510710846813,32.09990512447739],[75.24020657131949,32.09108513288681],[75.23133504403378,32.09157978576518],[75.22930309169206,32.093326452022346],[75.23541754204706,32.10353011244378],[75.22692403032451,32.1067521709672],[75.22617866220067,32.10342502018667],[75.22314741854697,32.10243534159933],[75.22367258893341,32.09821433316971],[75.21770799463579,32.103390724742965],[75.2202659213562,32.107713173986355],[75.21561213075483,32.12120785473826],[75.20255572625963,32.120152127844165],[75.2057297912637,32.102623190271345],[75.20406114367401,32.09669468244511],[75.19787574707281,32.098632715670654],[75.19656235622851,32.085583886380135],[75.19827082882969,32.082836881769175],[75.18902322813852,32.08235026856581],[75.17918448298981,32.07641160183604],[75.17414866135601,32.067710879543],[75.16603792267436,32.07164565119865],[75.15757927456801,32.081861279556975],[75.14466174512411,32.081408320185034],[75.14238418080726,32.08023623181807],[75.12278854230357,32.08150420442217],[75.12021461479135,32.07864075215704],[75.12075499455386,32.07547088475376],[75.11737086031725,32.07550671914081],[75.11304458828197,32.071907999522985],[75.10840035665353,32.07169103580824],[75.10661078414849,32.06971576251088],[75.10892048569461,32.06483265511906],[75.10481788787689,32.05866800364596],[75.10178373188505,32.05935287157704],[75.09775235968955,32.06632763710318],[75.09103595634751,32.071863174515514],[75.09005738557589,32.068864310596354],[75.09150412952748,32.065875128326006],[75.0839025227112,32.06009205573638],[75.07293159038572,32.05978583610736],[75.0688416408472,32.063621247783345],[75.07141922450263,32.06558840893618],[75.06860116813382,32.06720589513654],[75.06406412887502,32.06561658883141],[75.06800040900781,32.06244852257244],[75.06194749953796,32.05534369534538],[75.05861363143133,32.052821381024295],[75.0536621121954,32.05436521647857],[75.05055549449945,32.05269955022261],[75.05172148617868,32.05118063814877],[75.0406372780925,32.04263787553655],[75.03680821727879,32.04437572649112],[75.03388505173356,32.050700012342574],[75.02376560282148,32.04759901840709],[75.02150380483619,32.04864333873398],[75.0187473270818,32.04700871513162],[75.0177525695671,32.04194404188201],[75.0166026487483,32.04296214503198],[75.01228087817093,32.035743744521],[75.00479875896553,32.037558565013],[75.00285877434592,32.043603496276766],[75.00113617933017,32.0411623176763],[74.98519944904727,32.042405340554545],[74.98282186271344,32.04020428979669],[74.97168824638831,32.04256654877933],[74.97793724999984,32.04720909118481],[74.97386373334278,32.05348793381226],[74.95282499265767,32.060201714704704],[74.95199626536704,32.058164036698585],[74.94823295763884,32.05933277193825],[74.94948679736633,32.062343166859534],[74.94800934271014,32.06316826808128],[74.93393469873865,32.0655909903998],[74.92467839606734,32.06633064942075],[74.91878006150503,32.062464658985526],[74.9176342325124,32.05801399804469],[74.91217918689844,32.05600688896026],[74.91265330153573,32.05386365535076],[74.90464551337885,32.05032538412276],[74.89133020363897,32.05510017734075],[74.88967744904329,32.05521846159793],[74.88846080585675,32.05266949107754],[74.87935144061645,32.053838106925845],[74.8752898257386,32.050824117038744],[74.87252494424476,32.04400630125217],[74.86874905740765,32.04186376735275],[74.87235096572707,32.04157502563731],[74.87632945320343,32.03413221092846],[74.8799495730686,32.0318819769005],[74.86880052009364,32.02201517793329],[74.86918410161827,32.02783372680444],[74.86538675762229,32.03043906595693],[74.86260847056944,32.029572852603636],[74.86380360000322,32.02438444382475],[74.86552638995343,32.02324780336186],[74.84832834955316,32.02045048841534],[74.85315145372095,32.01346812496463],[74.84675209638536,32.0083760713913],[74.83890845468545,32.00849316599105],[74.82885259841066,31.99918774175326],[74.83118690571075,31.980852727265002],[74.81894454374618,31.958661410801543],[74.8150644388614,31.96050730420436],[74.81091519871748,31.959416131437468],[74.81063394877843,31.962381555834774],[74.80587910938571,31.963031941238896],[74.8021678805878,31.95788024143874],[74.79456943584132,31.95830260372649],[74.78158286457968,31.95578580223671],[74.76848296186174,31.947653081768006],[74.7597723372165,31.95428501155098],[74.75533829788984,31.95582816809603],[74.75614334738621,31.94381835258233],[74.74298822792272,31.93972082107782],[74.7343006306915,31.945359062741115],[74.73093286375932,31.941011760389838],[74.72721938827486,31.94283157227122],[74.72598542736633,31.94178696337874],[74.72235869679899,31.94292361254331],[74.71964749413492,31.941464057262728],[74.72028566988918,31.940421850108255],[74.7151915278305,31.936246590335617],[74.71389380270645,31.932162383067325],[74.71897696016582,31.923825032639],[74.70764203947039,31.923109879174348],[74.70651141715885,31.92115945718377],[74.7008155448953,31.92380203647873],[74.7007337829331,31.925911805221155],[74.69733903869462,31.92655318077477],[74.67706994310387,31.926247403193642],[74.67418238857316,31.91862642290828],[74.67342216051787,31.920862444576137],[74.66662846163719,31.922603540559095],[74.66834605213852,31.917988535387877],[74.66337714870521,31.913216897589137],[74.66265306346708,31.914366390907674],[74.6601550175452,31.913502154522252],[74.65837105681572,31.91027541254423],[74.6577079617955,31.90182107519125],[74.65450956951518,31.89954532734319],[74.6510436957742,31.902245625286664],[74.63660310690207,31.88403082549267],[74.63330414463248,31.884152625566855],[74.6296622127739,31.88196337891219],[74.61589320261156,31.88935777527158],[74.60777452102613,31.889958203888362],[74.60733323352427,31.88200675745072],[74.60810109007295,31.87855368925698],[74.60996364440662,31.878314275774677],[74.6065649412927,31.868519303551018],[74.59784550597114,31.86804736476316],[74.59221036071914,31.858037673757956],[74.59063036247493,31.848636846861325],[74.58338932593895,31.85191416674068],[74.57596666622221,31.84394249637294],[74.57308325921312,31.83856474734001],[74.57209079330072,31.839035519078017],[74.57061080180215,31.837013607148027],[74.57036591027591,31.82825073700941],[74.57113934805743,31.819044449605084],[74.57309163151157,31.81605564902716],[74.56495973031846,31.808091744969314],[74.5632846373166,31.808724165608822],[74.55782216083861,31.804779006001155],[74.56713684591855,31.796379598407547],[74.55554531697062,31.791370133094095],[74.55510728586167,31.786163482974978],[74.55129434621404,31.779046778754758],[74.55676652988699,31.770412006695647],[74.55484440108027,31.76685367187632],[74.56165934511745,31.763129961226603],[74.55936893399372,31.757878018553743],[74.54710959297199,31.752109814648296],[74.54724858570262,31.74935587887792],[74.53205153361459,31.748181530022343],[74.51387359832596,31.739984174468525],[74.50888017088539,31.742109783653806],[74.50385494667701,31.740289463591118],[74.50511623882808,31.73978081691948],[74.5029159493886,31.728441278110235],[74.49079466595133,31.723741992987105],[74.488203805196,31.720371207301014],[74.48655240076815,31.715055384877434],[74.4992003835245,31.709392849187974],[74.49922830226524,31.707278250343062],[74.5033405237346,31.70256693880507],[74.50193245495093,31.695638992974914],[74.51677367537178,31.688706684942883],[74.5242490940435,31.686983061239484],[74.53502033716953,31.67760045786409],[74.53448160222227,31.673605844251313],[74.52961572207728,31.66944298219355],[74.5287719695652,31.66640642362448],[74.54023794098589,31.65994152994383],[74.53741804037584,31.65321963679703],[74.53907226641196,31.648204442361468],[74.54112317679947,31.646637175170817],[74.54477996769114,31.64834660197103],[74.54657488427382,31.64551473870614],[74.54797176543896,31.640871672881683],[74.5461730696439,31.63323777317],[74.55155892791296,31.623980066933875],[74.55113717068372,31.6177542643178],[74.5564027481295,31.611394747217172],[74.55542085359137,31.607915429488408],[74.56713264719292,31.607063768690445],[74.5753572572183,31.603935644494133],[74.5756571022837,31.600790319532074],[74.57887151332216,31.599686281953385],[74.57478577418736,31.597789888124186],[74.57710870342608,31.595173394137557],[74.58086898832332,31.594253611124934],[74.58228496497642,31.587932832719925],[74.58086921829205,31.587259808426236],[74.58578952107189,31.585117161270393],[74.58694921017104,31.58342554270662],[74.58526243008734,31.581375266868626],[74.59180987829076,31.576529547726714],[74.59204947694333,31.57410073086434],[74.6016336907445,31.572707643987247],[74.61085266751746,31.567045406864345],[74.61582170659639,31.569041432122187],[74.6134241623919,31.566919020235797],[74.60892284553869,31.566711816424615],[74.60664647598117,31.56239854377451],[74.61121307699935,31.56013524119928],[74.61085077476714,31.558910676218822],[74.61604120185122,31.55749928205298],[74.61869338520111,31.551560931622983],[74.6143479035918,31.551102488397266],[74.61277766105158,31.527251032343663],[74.6037535710846,31.523972890996063],[74.59594257865365,31.525978579959908],[74.58893219534669,31.521415033884377],[74.58412134060612,31.520780896267425],[74.58263865236505,31.51358699685911],[74.58017306257439,31.511102723839088],[74.58362819156626,31.510351911071236],[74.584026566547,31.506751848992103],[74.58195616900602,31.508013152482512],[74.5800606033823,31.506993910264804],[74.58721473150779,31.504204437663617],[74.58459053786552,31.500194923500086],[74.58151728539588,31.500677860774395],[74.5812032963563,31.49887647049468],[74.57987169396624,31.500485701488405],[74.57528331778558,31.50090347329605],[74.57805046123732,31.498353157426006],[74.5873515422306,31.4960886284859],[74.58830919842578,31.49719126203801],[74.59354574232158,31.496123777390117],[74.59474625535886,31.501538841077213],[74.59945847687787,31.49972785864492],[74.60304092409496,31.500470084057937],[74.60544458582655,31.498435164167454],[74.60973169401036,31.499799885497612],[74.61293348012582,31.496095728277613],[74.61462396396345,31.488879729406168],[74.61863643111381,31.48509089663905],[74.62232276939181,31.485236257518945],[74.62219902017323,31.482029911810915],[74.62355370207953,31.48338171441301],[74.62583313848545,31.482700285978126],[74.62496069198654,31.485895470269742],[74.63195640400833,31.486527740229683],[74.63659784007959,31.48478753643996],[74.63150463496375,31.48129193895557],[74.62953184746321,31.484159640466256],[74.62768712558626,31.476905631729508],[74.63627468463083,31.47772677495467],[74.6385481714946,31.47259473320269],[74.64771760528134,31.465525099129763],[74.6521524108709,31.457236509980216],[74.65316588298793,31.45446526851913],[74.65125300503203,31.451951968984996],[74.64309854444718,31.450149811470546],[74.63977288514562,31.447508112902092],[74.63855114222326,31.444205682423934],[74.6428518868331,31.436655950759363],[74.65458693871567,31.42591998837608],[74.651863921409,31.426468322362823],[74.64821954613285,31.42377863783951],[74.64346789126782,31.41614562305923],[74.63363048191394,31.418747387709754],[74.63130292365659,31.425626709749466],[74.62880385994352,31.426159903143137],[74.62747088313107,31.42941421056365],[74.62230603198141,31.43018758812095],[74.61926174928138,31.41989890959305],[74.6088788379712,31.42366685596175],[74.60707617880911,31.42052513293377],[74.60113982664569,31.41996346991315],[74.60254890693238,31.415710578003473],[74.59644782530543,31.416317382347806],[74.59401056658223,31.407807647215574],[74.58696602663316,31.397693830324453],[74.58608808334306,31.385504774462536],[74.58341039951719,31.379069642143918],[74.57772652964418,31.375989613869315],[74.57840273288103,31.37497477589688],[74.57219121686464,31.37352099723705],[74.5715729666417,31.3714903235773],[74.567558327365,31.371987809184496],[74.55378537000531,31.36653281786531],[74.55164759612308,31.364420353226325],[74.55007717481814,31.358600769256913],[74.55056634881284,31.35705418036881],[74.5530808752269,31.356431079227253],[74.54798523926989,31.343053653004077],[74.5457934227402,31.34079247988148],[74.5486860114298,31.334878705278776],[74.54379167265658,31.335260384070484],[74.53674255309625,31.33024240116158],[74.53736489514529,31.32677854207605],[74.5336711107319,31.325018905669822],[74.53423811925438,31.322053439081806],[74.5378798355173,31.31920446130936],[74.5338357144313,31.316025855646643],[74.53531842063865,31.315076453437158],[74.53477593612341,31.31348075203174],[74.53198184950135,31.312865948749085],[74.52897959717683,31.31416841609405],[74.52632054351163,31.31246196315078],[74.5284810878897,31.308886823920954],[74.5322333364584,31.307697831449513],[74.53418885744085,31.304957115189303],[74.54076687441508,31.306077450420265],[74.5420067237803,31.303758048245566],[74.53748936930432,31.301047230705038],[74.53108182562158,31.284372548370968],[74.5263850739901,31.27684293575404],[74.5210283507806,31.27211576894907],[74.52050719676177,31.2689404720982],[74.52372256989588,31.2616987544773],[74.53198031158558,31.252341005531058],[74.53267036594582,31.249728748064726],[74.52810898863102,31.239987055162004],[74.52552988143289,31.237653499350888],[74.52311258417357,31.237623564933003],[74.51887070257102,31.233393745461726],[74.51974400246944,31.23189633710309],[74.51710274263341,31.228451076020523],[74.51713748857028,31.22682588135373],[74.52075807016948,31.225118864216373],[74.52457481238574,31.22024820612949],[74.52354144258516,31.217972092811994],[74.52599942274703,31.211897739711056],[74.52365354694274,31.208131077728666],[74.52538186782012,31.206167849574424],[74.5250714666518,31.203635212748118],[74.52140652624385,31.202728052007085],[74.52152639114716,31.197103404996263],[74.5198857817741,31.19433122505706],[74.52145126863321,31.19077091351544],[74.51950491585657,31.184209406855597],[74.51060006826037,31.18109874821476],[74.50988696312996,31.173358479794448],[74.51295809647384,31.16420793335315],[74.51069520973043,31.15787070239883],[74.5137375547644,31.15588321562517],[74.51282002990625,31.15362122218477],[74.51519052404092,31.151158634030683],[74.51358340296335,31.1485428054308],[74.51356433172987,31.13922618420357],[74.5102838522972,31.1320126179825],[74.52482450900041,31.12929561662066],[74.54377372252058,31.121005320125427],[74.54538214795197,31.122490157854767],[74.54840381107317,31.122094548482973],[74.54763950107323,31.114669103691284],[74.54961155015857,31.113129669639154],[74.55054374540366,31.088348401597578],[74.5520724588283,31.086003062437428],[74.56048514822639,31.082657129373434],[74.56211012421856,31.083420986071783],[74.57127104017978,31.081348025204612],[74.57373159491326,31.085841225392212],[74.58871868466825,31.08762262860638],[74.58646803926722,31.091152544746386],[74.58906191566695,31.092467438689617],[74.59076958337766,31.09251012485115],[74.5912468097791,31.088623671625278],[74.60071970704522,31.087991537836665],[74.599287144797,31.093049325037924],[74.60414714187516,31.09312047409167],[74.60398270795736,31.0950566439269],[74.6072172196986,31.094873125139628],[74.60956582638137,31.09761378070805],[74.60988704685899,31.111720528272315],[74.60543715675915,31.114454935717088],[74.59650273931877,31.127320168933252],[74.59701130075392,31.12938370638295],[74.59890046857619,31.128903379845436],[74.60323146125828,31.13373410557503],[74.60452942263926,31.132716648480685],[74.6096215919976,31.13383338136273],[74.61382330453387,31.13165613514728],[74.61852124822974,31.131387468974758],[74.62193930554648,31.13308377700816],[74.62663716300408,31.13114700158206],[74.63084212923833,31.132743471157283],[74.63245304839296,31.131366543712915],[74.63090892975949,31.12804561240942],[74.63230353818693,31.12155503103022],[74.63636114927355,31.118186667363716],[74.64031913719516,31.11972636008591],[74.64757664164694,31.12747028148011],[74.6537205055393,31.129838391190205],[74.65911173303883,31.13407530751029],[74.66643282833127,31.124445337608655],[74.67318224925157,31.123580181240683],[74.68289308418528,31.127329849577535],[74.68908628804462,31.128020129489595],[74.68976865013107,31.118312000207705],[74.69812064934858,31.11247025909967],[74.69720592543749,31.102579115977164],[74.7012751544357,31.097144619404617],[74.70237091672432,31.0916870355041],[74.69725706023844,31.084681120523083],[74.69068904959813,31.081452303456103],[74.69565474874086,31.07425937861872],[74.67110201336163,31.05357593357313],[74.66650514001668,31.05208061045743],[74.65222449258764,31.049200493524705],[74.64585496650601,31.049767218752887],[74.62035789964219,31.044310311385587],[74.61306757613987,31.044760961805455],[74.59688637564062,31.03764061830578],[74.59623109596336,31.04213653766603],[74.5903215827657,31.04997322621532],[74.5743671727397,31.056844913382207],[74.57042948315025,31.052884246073287],[74.56816342086232,31.05480695773357],[74.56143911234574,31.048724292974246],[74.55879005782799,31.03738149611054],[74.55773915740467,31.038257655909195],[74.54796015291728,31.03249018955358],[74.54245626320636,31.017243087828682],[74.53964026936949,31.008762171212435],[74.54400500277363,30.9979580588847],[74.5430452786567,30.99654846904891],[74.54637939020675,30.992428890317928],[74.51615359258568,30.97944869011883],[74.50869971102291,30.96728336699629],[74.50412917448548,30.964894222832175],[74.49799015520745,30.96435994754542],[74.49187098959551,30.9744314943274],[74.4896619703281,30.972461570612875],[74.48138473968831,30.970678339558923],[74.47979769865226,30.974228376652043],[74.4569281671636,30.96422814011437],[74.46635595103614,30.95676404693374],[74.45155641693606,30.95578337947464],[74.45515304675484,30.951330009525915],[74.44198240440325,30.951727828218456],[74.4418627604855,30.945490099410577],[74.43946725096511,30.942074716921493],[74.42880469051374,30.94242863188528],[74.41639074134676,30.940318313970305],[74.41782589882781,30.9378636440528],[74.41373853823393,30.929621901280942],[74.42371037058864,30.929619702062148],[74.42875642852508,30.931124481450244],[74.42353758503363,30.920766030050476],[74.41030829976197,30.923460004105905],[74.41109015296107,30.91955683558259],[74.41865878082668,30.919187487522546],[74.42442967139957,30.915844447559095],[74.42276762732551,30.90777203948958],[74.4096969351257,30.909556389807722],[74.39729663406284,30.90940151878845],[74.38301786051946,30.89533083278306],[74.37072363791523,30.895210446686136],[74.36588650206274,30.89293587158646],[74.36694216176043,30.886343134695288],[74.36091095468957,30.8736588787874],[74.38218953118249,30.860374502001594],[74.37791042159795,30.85834419797208],[74.37402516577333,30.859762539969562],[74.36950496094293,30.857360124776566],[74.3645859580253,30.857316977821704],[74.3684983294968,30.851818026372374],[74.36713486566025,30.849064324500688],[74.36337736733702,30.847204931913186],[74.3551085467249,30.84844877812631],[74.35422726799014,30.85265748137125],[74.34822457973459,30.854953569878994],[74.33877549411172,30.85255117534024],[74.34055867959508,30.849031709490188],[74.3324639318238,30.850970135502312],[74.3250518892954,30.84963134112541],[74.32038982970188,30.846562990168763],[74.32011695834947,30.841951791792976],[74.32220189063176,30.838579571517784],[74.31922475789752,30.83285235737062],[74.3197626026143,30.827342129013363],[74.30926306572573,30.817581960998574],[74.30234675669023,30.80810218486584],[74.30138589081457,30.80384536781235],[74.29928081830366,30.804642093339968],[74.29476266702198,30.794462560710752],[74.2982300759838,30.793764262613198],[74.3011490311253,30.789674087373147],[74.30678657577742,30.789207571400325],[74.30179934761063,30.77936224766323],[74.28970763581417,30.7750919871759],[74.28662145838422,30.775847819665298],[74.27433482025596,30.77343678656619],[74.26476718755829,30.776985082083048],[74.26088709255495,30.774458751172045],[74.26074889213838,30.76975398108504],[74.27358126758155,30.753366589853112],[74.27431955338767,30.744146954944245],[74.28619876870367,30.735018647837734],[74.28144248482,30.730838750362086],[74.27479918457914,30.737193296653047],[74.2712601161088,30.732167683055366],[74.26838676753597,30.7343546215543],[74.26902327691535,30.73027945953506],[74.26708415378012,30.726346700289046],[74.26090243937328,30.723095011873987],[74.24915098066037,30.72589083194151],[74.24175232123305,30.72594558787162],[74.24531232673772,30.724379146562754],[74.24517494378804,30.722894187707332],[74.23256679053476,30.724503201054798],[74.2272115729017,30.718831909106537],[74.22747296558138,30.71284571994958],[74.22512062819523,30.713093238284284],[74.22323530606069,30.709588814737373],[74.2191519483597,30.693489981310165],[74.2120043024773,30.687791317220437],[74.20534595365879,30.67598664553102],[74.19340123768387,30.665152298430545],[74.18164017687887,30.66134458933668],[74.17731123325392,30.655099889437153],[74.16929754945389,30.648641572038493],[74.16315599782509,30.648366543363675],[74.1595051250345,30.641496912256706],[74.15608959467865,30.640649902421806],[74.15332720600969,30.635218901466114],[74.14907423739994,30.631598660472786],[74.13773678165875,30.627376580274845],[74.12738427562599,30.634726353391024],[74.12850817404764,30.632334640554536],[74.12666399475309,30.624044690251193],[74.12106397093373,30.62247925406895],[74.11792362509217,30.60784405378204],[74.10500084679207,30.619187160582626],[74.09592383976663,30.611405259024334],[74.10187554503653,30.610937275038168],[74.10129851580704,30.603188265473523],[74.09522229505559,30.601120486034407],[74.0985918684998,30.590536963176266],[74.0962616916534,30.587255958235737],[74.1019152029614,30.57912758581212],[74.07345632413053,30.554593405264065],[74.07988075075073,30.548264666600904],[74.09087145589392,30.549362724942178],[74.07994144991447,30.531566514267823],[74.07227887354153,30.522869507172743],[74.07148191786587,30.523564270942376],[74.06350242394555,30.51915628485822],[74.05732612188827,30.51862347852319],[74.05211356121391,30.526182278360558],[74.05006971787274,30.537149169291403],[74.04778750118105,30.53959488008708],[74.03921782669543,30.54256099242403],[74.038004978891,30.531688440722927],[74.03101168782892,30.526888267184983],[74.02380816314258,30.526040244577732],[74.01188613861173,30.53362019122216],[74.0109313875682,30.521059426995826],[74.01994543437034,30.51414093586112],[73.99272898576453,30.514211998621036],[73.98196864818603,30.503972316561896],[73.97595577662841,30.494048895885527],[73.9636632644165,30.484781923154326],[73.96962448374359,30.478254764055674],[73.96974503675641,30.475212256695404],[73.9641342529166,30.456436442046712],[73.95012874418772,30.460036093680774],[73.94686088877977,30.4638482746412],[73.94753116133911,30.468207907102332],[73.94583741571869,30.468183153766873],[73.94771489106924,30.483866854828324],[73.93458882851193,30.490149285372894],[73.93103740101992,30.476145414374788],[73.9318209924591,30.467221628540827],[73.927979490877,30.465836089337376],[73.93759188393032,30.452134734925252],[73.9372897652289,30.444965577609036],[73.92645444347704,30.438909897276307],[73.93695156569412,30.43647471237251],[73.94968631762208,30.437010012427177],[73.96004250135762,30.440839544196887],[73.96810641176181,30.44016340870355],[73.97200111427,30.444114289814326],[73.97375378038988,30.44389129880939],[73.9663081300901,30.432327259562733],[73.96435303490911,30.42421878192573],[73.94924354969665,30.417284804832036],[73.93630691847657,30.401829738686775],[73.92157086023276,30.397562288564064],[73.91393555132194,30.38253887288265],[73.90049647888874,30.372661553649223],[73.89234754114625,30.368985485735127],[73.89042829233837,30.369606708301678],[73.88528971511417,30.366373130510627],[73.88406183939331,30.367020870895963],[73.87984832119756,30.359767068301867],[73.90258595754466,30.349093627737652],[73.914896962475,30.334551664901205],[73.93091521217495,30.320098003613584],[73.94064464942159,30.299330788312343],[73.95647940564837,30.2760508762376],[73.9639194387827,30.25716201639272],[73.9725888702823,30.198127560826826],[73.9737840248689,30.182958319302763],[73.97203184383925,30.175025802290648],[73.96817373869574,30.168456827232433],[73.96798960472375,30.14367638784782],[73.97072220435955,30.125073201810192],[73.97512232240277,30.120022859835817],[73.96760332915159,30.118914243973457],[73.95215634059866,30.104016739569087],[73.9494008617709,30.09588578818492],[73.92987179471794,30.068543440629657],[73.90401554367433,30.05003102013634],[73.89374988855985,30.02233792996969],[73.88625887513484,30.012068221540314],[73.88623628160711,29.99608752705266],[73.89574223418076,29.981255690003366],[73.89468376185788,29.973831442243775],[74.10168372238404,29.967064542813628],[74.26328990897187,29.957058875763085],[74.5271597397686,29.94278637118108]]]}}
